CTC2_L_00466025-05
1 10124U 26035DG  26075.70046296  .00000000  00000+0  00000-0 0  9997
2 10124  49.0000 288.0000 0000000   0.0000 158.4000 15.14992938    11
CTC2_L_00466026-01
1 10125U 23055GX  26075.70046296  .00000000  00000+0  00000-0 0  9997
2 10125  49.0000 300.0000 0000000   0.0000 240.0000 15.14992938    15
CTC2_L_00466026-02
1 10126U 25137QT  26075.70046296  .00000000  00000+0  00000-0 0  9991
2 10126  49.0000 300.0000 0000000   0.0000 312.0000 15.14992938    16
CTC2_L_00466026-03
1 10127U 22710JA  26075.70046296  .00000000  00000+0  00000-0 0  9996
2 10127  49.0000 300.0000 0000000   0.0000  24.0000 15.14992938    17
CTC2_L_00466026-04
1 10128U 22411JV  26075.70046296  .00000000  00000+0  00000-0 0  9995
2 10128  49.0000 300.0000 0000000   0.0000  96.0000 15.14992938    17
CTC2_L_00466026-05
1 10129U 24406KJ  26075.70046296  .00000000  00000+0  00000-0 0  9992
2 10129  49.0000 300.0000 0000000   0.0000 168.0000 15.14992938    18
CTC2_L_00466027-01
1 10130U 23971QM  26075.70046296  .00000000  00000+0  00000-0 0  9990
2 10130  49.0000 312.0000 0000000   0.0000 249.6000 15.14992938    19
CTC2_L_00466027-02
1 10131U 24027OB  26075.70046296  .00000000  00000+0  00000-0 0  9994
2 10131  49.0000 312.0000 0000000   0.0000 321.6000 15.14992938    11
CTC2_L_00466027-03
1 10132U 26933UK  26075.70046296  .00000000  00000+0  00000-0 0  9993
2 10132  49.0000 312.0000 0000000   0.0000  33.6000 15.14992938    12
CTC2_L_00466027-04
1 10133U 26516UT  26075.70046296  .00000000  00000+0  00000-0 0  9991
2 10133  49.0000 312.0000 0000000   0.0000 105.6000 15.14992938    13
CTC2_L_00466027-05
1 10134U 24242AG  26075.70046296  .00000000  00000+0  00000-0 0  9996
2 10134  49.0000 312.0000 0000000   0.0000 177.6000 15.14992938    13
CTC2_L_00466028-01
1 10135U 23447SQ  26075.70046296  .00000000  00000+0  00000-0 0  9993
2 10135  49.0000 324.0000 0000000   0.0000 259.2000 15.14992938    14
CTC2_L_00466028-02
1 10136U 26979UM  26075.70046296  .00000000  00000+0  00000-0 0  9997
2 10136  49.0000 324.0000 0000000   0.0000 331.2000 15.14992938    16
CTC2_L_00466028-03
1 10137U 25958WW  26075.70046296  .00000000  00000+0  00000-0 0  9994
2 10137  49.0000 324.0000 0000000   0.0000  43.2000 15.14992938    17
CTC2_L_00466028-04
1 10138U 22501DC  26075.70046296  .00000000  00000+0  00000-0 0  9996
2 10138  49.0000 324.0000 0000000   0.0000 115.2000 15.14992938    18
CTC2_L_00466028-05
1 10139U 24281NU  26075.70046296  .00000000  00000+0  00000-0 0  9994
2 10139  49.0000 324.0000 0000000   0.0000 187.2000 15.14992938    18
CTC2_L_00466029-01
1 10140U 23735BR  26075.70046296  .00000000  00000+0  00000-0 0  9999
2 10140  49.0000 336.0000 0000000   0.0000 268.8000 15.14992938    19
CTC2_L_00466029-02
1 10141U 24434JG  26075.70046296  .00000000  00000+0  00000-0 0  9997
2 10141  49.0000 336.0000 0000000   0.0000 340.8000 15.14992938    11
CTC2_L_00466029-03
1 10142U 24202QW  26075.70046296  .00000000  00000+0  00000-0 0  9991
2 10142  49.0000 336.0000 0000000   0.0000  52.8000 15.14992938    12
CTC2_L_00466029-04
1 10143U 22018HS  26075.70046296  .00000000  00000+0  00000-0 0  9995
2 10143  49.0000 336.0000 0000000   0.0000 124.8000 15.14992938    13
CTC2_L_00466029-05
1 10144U 22650OX  26075.70046296  .00000000  00000+0  00000-0 0  9998
2 10144  49.0000 336.0000 0000000   0.0000 196.8000 15.14992938    13
CTC2_L_00466030-01
1 10145U 22241CM  26075.70046296  .00000000  00000+0  00000-0 0  9995
2 10145  49.0000 348.0000 0000000   0.0000 278.4000 15.14992938    14
CTC2_L_00466030-02
1 10146U 25806DS  26075.70046296  .00000000  00000+0  00000-0 0  9996
2 10146  49.0000 348.0000 0000000   0.0000 350.4000 15.14992938    16
CTC2_L_00466030-03
1 10147U 25418SD  26075.70046296  .00000000  00000+0  00000-0 0  9996
2 10147  49.0000 348.0000 0000000   0.0000  62.4000 15.14992938    17
CTC2_L_00466030-04
1 10148U 22451SP  26075.70046296  .00000000  00000+0  00000-0 0  9991
2 10148  49.0000 348.0000 0000000   0.0000 134.4000 15.14992938    18
CTC2_L_00466030-05
1 10149U 26035ES  26075.70046296  .00000000  00000+0  00000-0 0  9994
2 10149  49.0000 348.0000 0000000   0.0000 206.4000 15.14992938    19
